193P/LINEAR-NEAT,e,10.6871,335.1941,8.4249,3.575041,0.1458084,0.39408314,56.4850,12/17.0/2015,2000,g 14.0,4.0
# From MPC 75724
194P/LINEAR,e,11.1380,351.9941,130.7103,3.998913,0.1232512,0.57545041,350.5767,12/17.0/2015,2000,g 16.0,4.0
# From MPC 75724
195P/Hill,e,36.3594,243.1460,249.6650,6.480749,0.0597401,0.31598297,150.4730,12/17.0/2015,2000,g  8.5,4.0
# From MPC 92985
196P/Tichy,e,19.3778,24.2563,11.9660,3.774469,0.1344065,0.43433172,24.8836,12/17.0/2015,2000,g 13.5,4.0
# From MPC 94676
197P/LINEAR,e,25.5501,66.3888,188.6981,2.865169,0.2032257,0.62978601,202.6872,12/17.0/2015,2000,g 16.5,2.0
# From MPC 65937
198P/ODAS,e,1.3394,358.3482,69.3286,3.598986,0.1443557,0.44344907,202.2363,12/17.0/2015,2000,g 12.5,4.0
# From MPC 75725
199P/Shoemaker,e,24.8950,92.3628,191.4579,5.912739,0.0685521,0.50367681,168.3637,12/17.0/2015,2000,g 10.0,4.0
# From MPC 75725
200P/Larsen,e,12.1071,234.8026,133.9971,4.929643,0.0900494,0.33076373,241.1035,12/17.0/2015,2000,g  9.0,4.0
# From MPC 93588
201P/LONEOS,e,7.0373,35.2027,25.0639,3.459456,0.1531766,0.61320244,51.5170,12/17.0/2015,2000,g 14.0,4.0
# From MPC 75725
202P/Scotti,e,2.1881,194.5242,255.7276,3.770711,0.1346075,0.33212989,336.1809,12/17.0/2015,2000,g 13.5,4.0
# From MPC 75725
203P/Korlevic,e,2.9766,290.3907,155.1390,4.661559,0.0979281,0.31544219,209.1490,12/17.0/2015,2000,g 14.5,2.0
# From MPC 96868
204P/LINEAR-NEAT,e,6.5887,109.0694,355.0861,3.655473,0.1410226,0.47213517,0.7603,12/17.0/2015,2000,g 14.0,4.0
# From MPC 94284
205P/Giacobini,e,15.2850,179.6187,154.2254,3.548024,0.1474770,0.56690609,32.0099,12/17.0/2015,2000,g 13.0,4.0
# From MPC 75725
206P/Barnard-Boattini,e,32.9785,203.9905,181.6497,3.241403,0.1688902,0.64664991,80.3883,12/17.0/2015,2000,g 19.0,4.0
# From MPC 75725
207P/NEAT,e,10.1603,200.5477,271.2763,3.877471,0.1290866,0.75822561,334.5342,12/17.0/2015,2000,g 16.0,4.0
# From MPC 75725
208P/McMillan,e,4.4075,36.4177,310.5316,4.052056,0.1208345,0.37206020,336.0960,12/17.0/2015,2000,g 12.5,4.0
# From MPC 90771
209P/LINEAR,e,21.2416,62.7964,152.4249,2.963167,0.1932280,0.67302054,113.9209,12/17.0/2015,2000,g 17.0,2.0
# From MPC 89013
210P/Christensen,e,10.2391,93.8241,345.8287,3.170375,0.1745975,0.83232472,84.9955,12/17.0/2015,2000,g 13.5,4.0
# From MPC 96868
211P/Hill,e,18.8878,117.2689,4.4327,3.558225,0.1468432,0.33941103,353.9313,12/17.0/2015,2000,g 12.5,4.0
# From MPC 75726
212P/NEAT,e,22.4272,98.8906,15.0636,3.917619,0.1271074,0.58019095,325.8861,12/17.0/2015,2000,g 17.0,2.0
# From MPC 88331
213P/Van Ness,e,10.3972,311.5040,5.0111,3.356553,0.1602743,0.40708112,256.3550,12/17.0/2015,2000,g 10.5,4.0
# From MPC 92986
214P/LINEAR,e,15.2052,348.2665,190.2420,3.612433,0.1435504,0.48746095,4.9242,12/17.0/2015,2000,g 13.0,4.0
# From MPC 81861
215P/NEAT,e,10.0486,61.6534,255.0237,4.342859,0.1089032,0.19636278,209.2328,12/17.0/2015,2000,g 11.0,4.0
# From MPC 84322
216P/LINEAR,e,9.0481,359.8738,151.6029,3.875156,0.1292023,0.44524959,338.5278,12/17.0/2015,2000,g 13.0,4.0
# From MPC 75726
217P/LINEAR,e,12.8560,125.4606,246.9597,3.954345,0.1253407,0.68756236,287.5964,12/17.0/2015,2000,g 12.0,4.0
# From MPC 95214
218P/LINEAR,e,2.7250,176.0200,59.6729,3.095835,0.1809412,0.62160740,43.0315,12/17.0/2015,2000,g 16.0,4.0
# From MPC 75727
219P/LINEAR,e,11.5294,231.0301,107.4304,3.651230,0.1412685,0.35223108,299.0091,12/17.0/2015,2000,g 11.0,4.0
# From MPC 96868
220P/McNaught,e,8.1252,150.1135,180.6610,3.116347,0.1791576,0.50136191,33.3706,12/17.0/2015,2000,g 15.0,4.0
# From MPC 93589
221P/LINEAR,e,11.4233,229.7538,39.9500,3.460111,0.1531331,0.49184423,24.2526,12/17.0/2015,2000,g 14.5,4.0
# From MPC 92277
222P/LINEAR,e,5.1643,6.8529,345.9732,2.873969,0.2022931,0.72562023,107.1999,12/17.0/2015,2000,g 20.0,4.0
# From MPC 75727
223P/Skiff,e,27.0176,346.8046,37.9037,4.153628,0.1164294,0.41480716,227.5046,12/17.0/2015,2000,g 12.0,4.0
# From MPC 75727
224P/LINEAR-NEAT,e,13.4255,40.4760,16.3222,3.413259,0.1562968,0.41601428,335.0531,12/17.0/2015,2000,g 15.5,4.0
# From MPC 75727
225P/LINEAR,e,21.3350,14.1840,3.9343,3.654078,0.1411034,0.63756677,325.5751,12/17.0/2015,2000,g 18.0,4.0
# From MPC 84322
226P/Pigott-LINEAR-Kowalski,e,44.0032,54.0115,341.1337,3.770257,0.1346318,0.52888508,324.5724,12/17.0/2015,2000,g 12.5,4.0
# From MPC 75727
227P/Catalina-LINEAR,e,6.5260,49.8045,90.2128,3.586037,0.1451383,0.50130350,279.7301,12/17.0/2015,2000,g 16.5,2.0
# From MPC 75728
228P/LINEAR,e,7.9107,31.0172,115.1935,4.176075,0.1154919,0.17822313,181.7104,12/17.0/2015,2000,g 14.5,2.0
# From MPC 75728
229P/Gibbs,e,26.0691,157.9074,224.2154,3.934531,0.1262887,0.37604328,294.2099,12/17.0/2015,2000,g 13.0,4.0
# From MPC 95735
230P/LINEAR,e,14.6531,112.3947,308.9211,3.399242,0.1572646,0.56305540,4.5488,12/17.0/2015,2000,g 13.0,4.0
# From MPC 75728
231P/LINEAR-NEAT,e,12.3308,133.0649,42.4269,4.023007,0.1221456,0.24793844,204.4165,12/17.0/2015,2000,g 14.5,2.0
# From MPC 75728
232P/Hill,e,14.6290,56.0596,53.5963,4.486390,0.1037191,0.33565196,234.8988,12/17.0/2015,2000,g 11.5,4.0
# From MPC 92986
233P/La Sagra,e,11.2778,74.9538,27.2528,3.032851,0.1866068,0.41098286,32.5753,12/17.0/2015,2000,g 15.0,4.0
# From MPC 82322
234P/LINEAR,e,11.5263,179.7230,358.1206,3.809243,0.1325702,0.25227546,289.3523,12/17.0/2015,2000,g 12.0,4.0
# From MPC 75728
235P/LINEAR,e,8.9027,204.4534,333.6153,3.992906,0.1235294,0.31514469,258.5734,12/17.0/2015,2000,g 12.0,4.0
# From MPC 75728
236P/LINEAR,e,16.3316,245.6744,119.2772,3.731704,0.1367236,0.50744391,263.6975,12/17.0/2015,2000,g 14.0,4.0
# From MPC 92277
237P/LINEAR,e,14.0188,245.4567,24.9644,3.512089,0.1497462,0.43474512,315.1462,12/17.0/2015,2000,g 14.5,2.0
# From MPC 89731
238P/Read,e,1.2647,51.6532,324.9907,3.164813,0.1750580,0.25245194,305.5971,12/17.0/2015,2000,g 14.5,4.0
# From MPC 75729
239P/LINEAR,e,11.3085,255.9770,220.3565,4.470061,0.1042879,0.63169906,243.2363,12/17.0/2015,2000,g 17.5,2.0
# From MPC 94676
240P/NEAT,e,23.5111,74.9488,352.1718,3.870140,0.1294536,0.44923272,245.9214,12/17.0/2015,2000,g 12.0,4.0
# From MPC 75729
241P/LINEAR,e,20.8713,305.7758,110.5555,4.955710,0.0893398,0.60924667,176.8932,12/17.0/2015,2000,g 13.5,4.0
# From MPC 81861
242P/Spahr,e,32.5184,180.7017,247.3335,5.493048,0.0765568,0.27591041,103.8577,12/17.0/2015,2000,g  8.0,4.0
# From MPC 82322
243P/NEAT,e,7.6404,87.6674,283.5789,3.828943,0.1315485,0.35854736,230.6044,12/17.0/2015,2000,g 12.5,4.0
# From MPC 88331
244P/Scotti,e,2.2582,354.1113,92.8867,4.894689,0.0910157,0.19782014,129.8292,12/17.0/2015,2000,g  9.0,4.0
# From MPC 75729
245P/WISE,e,21.2673,316.7820,316.8998,4.032307,0.1217233,0.45913222,264.4755,12/17.0/2015,2000,g 14.0,4.0
# From MPC 93589
246P/NEAT,e,15.9746,78.7537,176.0036,4.023941,0.1221031,0.28540344,128.5461,12/17.0/2015,2000,g 10.5,4.0
# From MPC 75729
247P/LINEAR,e,13.6642,54.0505,47.4748,3.968616,0.1246653,0.62560321,225.2749,12/17.0/2015,2000,g 16.5,2.0
# From MPC 75730
248P/Gibbs,e,6.3565,207.7900,210.1609,5.987188,0.0672775,0.63870096,119.3819,12/17.0/2015,2000,g 14.0,4.0
# From MPC 92986
249P/LINEAR,e,8.3936,239.1618,65.6262,2.763770,0.2145118,0.81944544,4.3539,12/17.0/2015,2000,g 15.5,4.0
# From MPC 75730
250P/Larson,e,13.2888,73.7027,45.0452,3.733142,0.1366446,0.40734086,253.6985,12/17.0/2015,2000,g 14.5,4.0
# From MPC 75730
251P/LINEAR,e,23.4171,219.4336,31.2198,3.504418,0.1502381,0.50601860,273.2119,12/17.0/2015,2000,g 16.5,2.0
# From MPC 95735
252P/LINEAR,e,10.4047,190.9822,343.2900,3.052258,0.1848299,0.67364937,343.4977,12/17.0/2015,2000,g 17.5,4.0
# From MPC 81473
253P/PANSTARRS,e,4.9406,146.8921,230.7520,3.467955,0.1526138,0.41241903,226.7423,12/17.0/2015,2000,g 14.5,4.0
# From MPC 81473
254P/McNaught,e,32.5689,129.8079,219.1466,4.628961,0.0989644,0.31935780,186.1757,12/17.0/2015,2000,g 11.0,4.0
# From NK 2214
255P/Levy,e,18.2584,279.7243,179.7037,3.038565,0.1860807,0.66798436,266.4012,12/17.0/2015,2000,g 20.0,4.0
# From MPC 84027
256P/LINEAR,e,27.6291,81.4169,124.1476,4.631791,0.0988737,0.41953704,99.2917,12/17.0/2015,2000,g 14.0,2.0
# From MPC 88332
257P/Catalina,e,20.2375,207.8089,117.9527,3.754697,0.1354696,0.43169288,125.4699,12/17.0/2015,2000,g 11.5,4.0
# From MPC 79655
258P/PANSTARRS,e,6.7459,126.2992,25.9772,4.404524,0.1066241,0.21045229,184.6609,12/17.0/2015,2000,g 13.0,4.0
# From MPC 79655
259P/Garradd,e,15.8677,51.6043,257.2097,2.734034,0.2180210,0.33834786,230.2245,12/17.0/2015,2000,g 15.5,4.0
# From MPC 82322
260P/McNaught,e,15.8039,351.8649,15.4033,3.668363,0.1402800,0.59647792,166.9023,12/17.0/2015,2000,g 13.5,4.0
# From MPC 81861
261P/Larson,e,6.1794,297.1146,59.4396,3.550600,0.1473165,0.40891312,170.5484,12/17.0/2015,2000,g 14.0,4.0
# From MPC 82322
262P/McNaught-Russell,e,29.0925,217.9665,171.1265,6.902270,0.0543521,0.81469282,60.2420,12/17.0/2015,2000,g 13.5,4.0
# From MPC 82323
263P/Gibbs,e,11.5324,105.8560,34.5547,3.061967,0.1839515,0.58762302,239.9328,12/17.0/2015,2000,g 18.0,4.0
# From MPC 81473
264P/Larsen,e,25.1398,220.9020,346.4364,3.898786,0.1280295,0.37333535,190.1559,12/17.0/2015,2000,g 13.0,4.0
# From MPC 79870
265P/LINEAR,e,14.7090,344.7116,32.6270,4.232415,0.1131936,0.64743768,145.4717,12/17.0/2015,2000,g 14.5,4.0
# From MPC 90771
266P/Christensen,e,3.4281,5.0104,98.0109,3.530393,0.1485831,0.34016671,124.4791,12/17.0/2015,2000,g 12.5,4.0
# From MPC 81862
267P/LONEOS,e,5.4368,238.7800,102.9668,3.253263,0.1679675,0.60956168,201.2200,12/17.0/2015,2000,g 19.5,4.0
# From MPC 92277
268P/Bernardi,e,16.0971,127.6445,0.3671,4.566098,0.1010151,0.47012433,23.6228,12/17.0/2015,2000,g 14.0,4.0
# From MPC 93589
269P/Jedicke,e,6.5706,247.0830,224.5404,7.411629,0.0488465,0.45073261,19.5243,12/17.0/2015,2000,g 10.0,4.0
# From MPC 88332
270P/Gehrels,e,2.8649,223.4911,210.7033,6.752578,0.0561694,0.47203693,50.7338,12/17.0/2015,2000,g  8.0,4.0
# From MPC 92277
271P/van Houten-Lemmon,e,6.8567,9.3015,36.4625,7.055911,0.0525865,0.39489252,46.6386,12/17.0/2015,2000,g 11.0,4.0
# From MPC 81862
272P/NEAT,e,18.0993,109.5021,28.0372,4.445876,0.1051400,0.45577109,107.5000,12/17.0/2015,2000,g 16.0,2.0
# From MPC 82723
